$$SOE
2460154.500000000, A.D. 2023-Jul-29 00:00:00.0000, -2.196390372531871E+08, -1.090401175176668E+08, 1.039369898018036E+08,
2460161.500000000, A.D. 2023-Aug-05 00:00:00.0000, -2.130219141089032E+08, -1.206102583971605E+08, 1.075813722335612E+08,
2460168.500000000, A.D. 2023-Aug-12 00:00:00.0000, -2.058640234879391E+08, -1.318742837808623E+08, 1.109526640493895E+08,
2460175.500000000, A.D. 2023-Aug-19 00:00:00.0000, -1.981898535789900E+08, -1.428076464772919E+08, 1.140457107161051E+08,
2460182.500000000, A.D. 2023-Aug-26 00:00:00.0000, -1.900247722012945E+08, -1.533873387397270E+08, 1.168562768555469E+08,
2460189.500000000, A.D. 2023-Sep-02 00:00:00.0000, -1.813948919259811E+08, -1.635919081100952E+08, 1.193810201909174E+08,
2460196.500000000, A.D. 2023-Sep-09 00:00:00.0000, -1.723269407862144E+08, -1.734014630058463E+08, 1.216174621358089E+08,
2460203.500000000, A.D. 2023-Sep-16 00:00:00.0000, -1.628481391027119E+08, -1.827976690659933E+08, 1.235639556138435E+08,
2460210.500000000, A.D. 2023-Sep-23 00:00:00.0000, -1.529860825397658E+08, -1.917637369488387E+08, 1.252196506718287E+08,
2460217.500000000, A.D. 2023-Sep-30 00:00:00.0000, -1.427686321102239E+08, -2.002844013696648E+08, 1.265844585544501E+08,
2460224.500000000, A.D. 2023-Oct-07 00:00:00.0000, -1.322238137211865E+08, -2.083458928834164E+08, 1.276590149079186E+08,
2460231.500000000, A.D. 2023-Oct-14 00:00:00.0000, -1.213797263331133E+08, -2.159359066605352E+08, 1.284446421996198E+08,
2460238.500000000, A.D. 2023-Oct-21 00:00:00.0000, -1.102644555094843E+08, -2.230435675476795E+08, 1.289433116003846E+08,
2460245.500000000, A.D. 2023-Oct-28 00:00:00.0000, -9.890599369388478E+07, -2.296593899923929E+08, 1.291576050089288E+08,
2460252.500000000, A.D. 2023-Nov-04 00:00:00.0000, -8.733216829615615E+07, -2.357752343809391E+08, 1.290906775845392E+08,
2460259.500000000, A.D. 2023-Nov-11 00:00:00.0000, -7.557057717456204E+07, -2.413842611065277E+08, 1.287462209900742E+08,
2460266.500000000, A.D. 2023-Nov-18 00:00:00.0000, -6.364853100401870E+07, -2.464808830874617E+08, 1.281284275444625E+08,
2460273.500000000, A.D. 2023-Nov-25 00:00:00.0000, -5.159300212465206E+07, -2.510607173055022E+08, 1.272419554674915E+08,
2460280.500000000, A.D. 2023-Dec-02 00:00:00.0000, -3.943057948047012E+07, -2.551205359052316E+08, 1.260918953676404E+08,
2460287.500000000, A.D. 2023-Dec-09 00:00:00.0000, -2.718742918959491E+07, -2.586582173799351E+08, 1.246837380822280E+08,
2460294.500000000, A.D. 2023-Dec-16 00:00:00.0000, -1.488926006602660E+07, -2.616726982380254E+08, 1.230233439341179E+08,
2460301.500000000, A.D. 2023-Dec-23 00:00:00.0000, -2.561293346565776E+06, -2.641639248131508E+08, 1.211169134907684E+08,
2460308.500000000, A.D. 2023-Dec-30 00:00:00.0000, 9.771762434048446E+06, -2.661328044662556E+08, 1.189709600708463E+08,
2460315.500000000, A.D. 2024-Jan-06 00:00:00.0000, 2.208573004025171E+07, -2.675811587877299E+08, 1.165922839819056E+08,
2460322.500000000, A.D. 2024-Jan-13 00:00:00.0000, 3.435697916375855E+07, -2.685116808112078E+08, 1.139879480481744E+08,
2460329.500000000, A.D. 2024-Jan-20 00:00:00.0000, 4.656244067867377E+07, -2.689278933222699E+08, 1.111652545548774E+08,
2460336.500000000, A.D. 2024-Jan-27 00:00:00.0000, 5.867961785013542E+07, -2.688341077412407E+08, 1.081317238222712E+08,
2460343.500000000, A.D. 2024-Feb-03 00:00:00.0000, 7.068659440664788E+07, -2.682353846268492E+08, 1.048950743332443E+08,
2460350.500000000, A.D. 2024-Feb-10 00:00:00.0000, 8.256204007440794E+07, -2.671374961621556E+08, 1.014632043190276E+08,
2460357.500000000, A.D. 2024-Feb-17 00:00:00.0000, 9.428521401394126E+07, -2.655468906612024E+08, 9.784417473810317E+07,
2460364.500000000, A.D. 2024-Feb-24 00:00:00.0000, 1.058359664765149E+08, -2.634706591065684E+08, 9.404619358702704E+07,
2460371.500000000, A.D. 2024-Mar-02 00:00:00.0000, 1.171947389717262E+08, -2.609165037561331E+08, 9.007760147309387E+07,
2460378.500000000, A.D. 2024-Mar-09 00:00:00.0000, 1.283425633275572E+08, -2.578927088712893E+08, 8.594685836225244E+07,
2460385.500000000, A.D. 2024-Mar-16 00:00:00.0000, 1.392610602606266E+08, -2.544081133430521E+08, 8.166253140891303E+07,
2460392.500000000, A.D. 2024-Mar-23 00:00:00.0000, 1.499324375597592E+08, -2.504720840635183E+08, 7.723328389023751E+07,
2460399.500000000, A.D. 2024-Mar-30 00:00:00.0000, 1.603394858391400E+08, -2.460944900113403E+08, 7.266786537241167E+07,
2460406.500000000, A.D. 2024-Apr-06 00:00:00.0000, 1.704655723059235E+08, -2.412856803545592E+08, 6.797510274276553E+07,
2460413.500000000, A.D. 2024-Apr-13 00:00:00.0000, 1.802946362690595E+08, -2.360564656745977E+08, 6.316389179230338E+07,
2460420.500000000, A.D. 2024-Apr-20 00:00:00.0000, 1.898111855929431E+08, -2.304180995801609E+08, 5.824318959851555E+07,
2460427.500000000, A.D. 2024-Apr-27 00:00:00.0000, 1.990002927148971E+08, -2.243822612127031E+08, 5.322200773991511E+07,
2460434.500000000, A.D. 2024-May-04 00:00:00.0000, 2.078475904374442E+08, -2.179610392774456E+08, 4.810940621043280E+07,
2460441.500000000, A.D. 2024-May-11 00:00:00.0000, 2.163392678484336E+08, -2.111669176255796E+08, 4.291448793697350E+07,
2460448.500000000, A.D. 2024-May-18 00:00:00.0000, 2.244620665584028E+08, -2.040127622870052E+08, 3.764639382993653E+07,
2460455.500000000, A.D. 2024-May-25 00:00:00.0000, 2.322032773787208E+08, -1.965118098807917E+08, 3.231429830137831E+07,
2460462.500000000, A.D. 2024-Jun-01 00:00:00.0000, 2.395507375891670E+08, -1.886776573782566E+08, 2.692740517898206E+07,
2460469.500000000, A.D. 2024-Jun-08 00:00:00.0000, 2.464928291236261E+08, -1.805242531537169E+08, 2.149494393128205E+07,
2460476.500000000, A.D. 2024-Jun-15 00:00:00.0000, 2.530184781565359E+08, -1.720658886902989E+08, 1.602616615636455E+07,
2460483.500000000, A.D. 2024-Jun-22 00:00:00.0000, 2.591171551653800E+08, -1.633171896865781E+08, 1.053034246914446E+07,
2460490.500000000, A.D. 2024-Jun-29 00:00:00.0000, 2.647788734151740E+08, -1.542931083061673E+08, 5.016759777535990E+06,
2460497.500000000, A.D. 2024-Jul-06 00:00:00.0000, 2.699941885670887E+08, -1.450089189524572E+08, -5.052815538474247E+05,
2460504.500000000, A.D. 2024-Jul-13 00:00:00.0000, 2.747542014182506E+08, -1.354802146513381E+08, -6.026470655180246E+06,
2460511.500000000, A.D. 2024-Jul-20 00:00:00.0000, 2.790505618456451E+08, -1.257229028027478E+08, -1.153748899554261E+07,
2460518.500000000, A.D. 2024-Jul-27 00:00:00.0000, 2.828754733527687E+08, -1.157532011695928E+08, -1.702901319201529E+07,
2460525.500000000, A.D. 2024-Aug-03 00:00:00.0000, 2.862216985426311E+08, -1.055876343849833E+08, -2.249171789461374E+07,
2460532.500000000, A.D. 2024-Aug-10 00:00:00.0000, 2.890825657308449E+08, -9.524303088503188E+07, -2.791627881913584E+07,
2460539.500000000, A.D. 2024-Aug-17 00:00:00.0000, 2.914519767918109E+08, -8.473652014567991E+07, -3.329337598880338E+07,
2460546.500000000, A.D. 2024-Aug-24 00:00:00.0000, 2.933244163082196E+08, -7.408553014462280E+07, -3.861369724966794E+07,
2460553.500000000, A.D. 2024-Aug-31 00:00:00.0000, 2.946949621736578E+08, -6.330778500811981E+07, -4.386794213770974E+07,
2460560.500000000, A.D. 2024-Sep-07 00:00:00.0000, 2.955592980329022E+08, -5.242130260864857E+07, -4.904682618161910E+07,
2460567.500000000, A.D. 2024-Sep-14 00:00:00.0000, 2.959137276579787E+08, -4.144439099501146E+07, -5.414108562433028E+07,
2460574.500000000, A.D. 2024-Sep-21 00:00:00.0000, 2.957551892535257E+08, -3.039564311353391E+07, -5.914148239985116E+07,
2460581.500000000, A.D. 2024-Sep-28 00:00:00.0000, 2.950812692204754E+08, -1.929393291754137E+07, -6.403880964210342E+07,
2460588.500000000, A.D. 2024-Oct-05 00:00:00.0000, 2.938902190518554E+08, -8.158412716315914E+06, -6.882389812052169E+07,
2460595.500000000, A.D. 2024-Oct-12 00:00:00.0000, 2.921809750086970E+08, 2.991491375744294E+06, -7.348762339102018E+07,
2460602.500000000, A.D. 2024-Oct-19 00:00:00.0000, 2.899531788339040E+08, 1.413608577825502E+07, -7.802091359819186E+07,
2460609.500000000, A.D. 2024-Oct-26 00:00:00.0000, 2.872071994670904E+08, 2.525541693172971E+07, -8.241475806984878E+07,
2460616.500000000, A.D. 2024-Nov-02 00:00:00.0000, 2.839441559952864E+08, 3.632927995189582E+07, -8.666021681811467E+07,
2460623.500000000, A.D. 2024-Nov-09 00:00:00.0000, 2.801659418968124E+08, 4.733722865123820E+07, -9.074843103132789E+07,
2460630.500000000, A.D. 2024-Nov-16 00:00:00.0000, 2.758752505497132E+08, 5.825858711941738E+07, -9.467063463572818E+07,
2460637.500000000, A.D. 2024-Nov-23 00:00:00.0000, 2.710756019828017E+08, 6.907246301512411E+07, -9.841816701324265E+07,
2460644.500000000, A.D. 2024-Nov-30 00:00:00.0000, 2.657713709927512E+08, 7.975776273532154E+07, -1.019824869776166E+08,
2460651.500000000, A.D. 2024-Dec-07 00:00:00.0000, 2.599678169363648E+08, 9.029320909068477E+07, -1.053551880877450E+08,
2460658.500000000, A.D. 2024-Dec-14 00:00:00.0000, 2.536711143635961E+08, 1.006573629284680E+08, -1.085280151953745E+08,
2460665.500000000, A.D. 2024-Dec-21 00:00:00.0000, 2.468883820084394E+08, 1.108286477013459E+08, -1.114928821733504E+08,
2460672.500000000, A.D. 2024-Dec-28 00:00:00.0000, 2.396277119269961E+08, 1.207853742581647E+08, -1.142418913060349E+08,
2460679.500000000, A.D. 2025-Jan-04 00:00:00.0000, 2.318982011559164E+08, 1.305057684837331E+08, -1.167673544348440E+08,
2460686.500000000, A.D. 2025-Jan-11 00:00:00.0000, 2.237099838180606E+08, 1.399680037098552E+08, -1.190618156086849E+08,
2460693.500000000, A.D. 2025-Jan-18 00:00:00.0000, 2.150742624799811E+08, 1.491502372327708E+08, -1.211180752842750E+08,
2460700.500000000, A.D. 2025-Jan-25 00:00:00.0000, 2.060033386856986E+08, 1.580306507009466E+08, -1.229292161774755E+08,
2460707.500000000, A.D. 2025-Feb-01 00:00:00.0000, 1.965106424899886E+08, 1.665874945693133E+08, -1.244886308040265E+08,
2460714.500000000, A.D. 2025-Feb-08 00:00:00.0000, 1.866107606355084E+08, 1.747991368542987E+08, -1.257900507101261E+08,
2460721.500000000, A.D. 2025-Feb-15 00:00:00.0000, 1.763194629413927E+08, 1.826441163686336E+08, -1.268275773725242E+08,
$$EOE